[{"OBJECT_NAME":"STARLINK-3148","OBJECT_ID":"2021-115N","EPOCH":"2026-03-09T12:45:29.556576","MEAN_MOTION":15.08843633,"ECCENTRICITY":0.0001451,"INCLINATION":53.2182,"RA_OF_ASC_NODE":149.7179,"ARG_OF_PERICENTER":105.4644,"MEAN_ANOMALY":254.6508,"EPHEMERIS_TYPE":0,"CLASSIFICATION_TYPE":"U","NORAD_CAT_ID":49736,"ELEMENT_SET_NO":999,"REV_AT_EPOCH":23551,"BSTAR":3.4553316e-5,"MEAN_MOTION_DOT":2.62e-6,"MEAN_MOTION_DDOT":0},{"OBJECT_NAME":"COSMOS 2251 DEB","OBJECT_ID":"1993-036EU","EPOCH":"2026-03-09T14:44:02.306976","MEAN_MOTION":15.10275873,"ECCENTRICITY":0.0002082,"INCLINATION":74.0027,"RA_OF_ASC_NODE":262.4484,"ARG_OF_PERICENTER":258.1067,"MEAN_ANOMALY":101.9891,"EPHEMERIS_TYPE":0,"CLASSIFICATION_TYPE":"U","NORAD_CAT_ID":33939,"ELEMENT_SET_NO":999,"REV_AT_EPOCH":90059,"BSTAR":0.0040153,"MEAN_MOTION_DOT":0.00066338,"MEAN_MOTION_DDOT":0}]
